{
    "links": {
        "self": "http://www.neowsapp.com/rest/v1/neo/3323936?api_key=iIulBulltgU6a56xZRHN4H3l9WmuAYTsLGpBGhQ2"
    },
    "id": "3323936",
    "neo_reference_id": "3323936",
    "name": "(2006 DZ)",
    "designation": "2006 DZ",
    "nasa_jpl_url": "http://ssd.jpl.nasa.gov/sbdb.cgi?sstr=3323936",
    "absolute_magnitude_h": 21.0,
    "estimated_diameter": {
        "kilometers": {
            "estimated_diameter_min": 0.1677084622,
            "estimated_diameter_max": 0.3750075218
        },
        "meters": {
            "estimated_diameter_min": 167.7084621628,
            "estimated_diameter_max": 375.0075217981
        },
        "miles": {
            "estimated_diameter_min": 0.1042091748,
            "estimated_diameter_max": 0.2330187988
        },
        "feet": {
            "estimated_diameter_min": 550.2246310023,
            "estimated_diameter_max": 1230.3396778159
        }
    },
    "is_potentially_hazardous_asteroid": false,
    "close_approach_data": [
        {
            "close_approach_date": "2006-02-23",
            "close_approach_date_full": "2006-Feb-23 15:17",
            "epoch_date_close_approach": 1140707820000,
            "relative_velocity": {
                "kilometers_per_second": "12.6077477629",
                "kilometers_per_hour": "45387.891946571",
                "miles_per_hour": "28202.2709709124"
            },
            "miss_distance": {
                "astronomical": "0.3369321205",
                "lunar": "131.0665948745",
                "kilometers": "50404327.561383335",
                "miles": "31319796.828366623"
            },
            "orbiting_body": "Earth"
        }
    ],
    "orbital_data": {
        "orbit_id": "12",
        "orbit_determination_date": "2017-04-06 09:09:05",
        "first_observation_date": "2006-02-21",
        "last_observation_date": "2006-03-23",
        "data_arc_in_days": 30,
        "observations_used": 40,
        "orbit_uncertainty": "7",
        "minimum_orbit_intersection": ".33052",
        "jupiter_tisserand_invariant": "3.356",
        "epoch_osculation": "2459000.5",
        "eccentricity": ".4391225745280804",
        "semi_major_axis": "2.298583900597735",
        "inclination": "23.88618183085561",
        "ascending_node_longitude": "343.067817342224",
        "orbital_period": "1272.884410954198",
        "perihelion_distance": "1.28922382039846",
        "perihelion_argument": "151.3786787948525",
        "aphelion_distance": "3.30794398079701",
        "perihelion_time": "2458852.393243531191",
        "mean_anomaly": "41.88788225381913",
        "mean_motion": ".2828222239992173",
        "equinox": "J2000",
        "orbit_class": {
            "orbit_class_type": "AMO",
            "orbit_class_description": "Near-Earth asteroid orbits similar to that of 1221 Amor",
            "orbit_class_range": "1.017 AU < q (perihelion) < 1.3 AU"
        }
    },
    "is_sentry_object": false
}